NORAD_CAT_ID,OBJECT_NAME,OBJECT_TYPE,EPOCH,MEAN_MOTION,ECCENTRICITY,INCLINATION,RA_OF_ASC_NODE,ARG_OF_PERICENTER,MEAN_ANOMALY,BSTAR,MEAN_MOTION_DOT,MEAN_MOTION_DDOT,TLE_LINE0,TLE_LINE1,TLE_LINE2,SEMIMAJOR_AXIS,PERIOD,APOGEE,PERIGEE,DECAYED
51984.0,STARLINK-3664,PAYLOAD,2024-08-09 19:56:27,15.08835012,0.000154,53.2149,108.827,114.1541,245.9612,-1.1904e-05,-4.77e-06,0.0,0 STARLINK-3664,1 51984U 22025AE  24222.83087363 -.00000477  00000-0 -11904-4 0  9997,2 51984  53.2149 108.8270 0001540 114.1541 245.9612 15.08835012135074,6917.896,95.438,540.826,538.695,0.0
51984.0,STARLINK-3664,PAYLOAD,2024-08-09 21:31:50,15.08835791,0.0001452,53.218,108.5306,117.5337,242.5803,4.6131e-06,-2.15e-06,0.0,0 STARLINK-3664,1 51984U 22025AE  24222.89711265 -.00000215  00000-0  46131-5 0  9998,2 51984  53.2180 108.5306 0001452 117.5337 242.5803 15.08835791133985,6917.893,95.438,540.763,538.754,0.0
51984.0,STARLINK-3664,PAYLOAD,2024-08-10 02:17:59,15.08842667,0.0001486,53.2177,107.6353,115.7619,244.3527,5.1799e-05,5.37e-06,0.0,0 STARLINK-3664,1 51984U 22025AE  24223.09582761  .00000537  00000-0  51799-4 0  9999,2 51984  53.2177 107.6353 0001486 115.7619 244.3527 15.08842667135113,6917.872,95.437,540.765,538.709,0.0
51984.0,STARLINK-3664,PAYLOAD,2024-08-10 19:47:14,15.08809075,0.0001515,53.2172,104.3636,114.9234,245.1916,0.00037931,5.749e-05,0.0,0 STARLINK-3664,1 51984U 22025AE  24223.82447595  .00005749  00000-0  37931-3 0  9996,2 51984  53.2172 104.3636 0001515 114.9234 245.1916 15.08809075135222,6917.975,95.44,540.888,538.792,0.0
51984.0,STARLINK-3664,PAYLOAD,2024-08-10 21:22:37,15.0883906,0.0001351,53.218,104.0668,95.2155,264.8991,-8.9602e-06,-4.31e-06,0.0,0 STARLINK-3664,1 51984U 22025AE  24223.89071298 -.00000431  00000-0 -89602-5 0  9995,2 51984  53.2180 104.0668 0001351  95.2155 264.8991 15.08839060134131,6917.883,95.438,540.683,538.814,0.0
51984.0,STARLINK-3664,PAYLOAD,2024-08-11 02:08:46,15.08840626,0.0001377,53.218,103.1747,96.5892,263.5257,6.4942e-06,-1.85e-06,0.0,0 STARLINK-3664,1 51984U 22025AE  24224.08943156 -.00000185  00000-0  64942-5 0  9993,2 51984  53.2180 103.1747 0001377  96.5892 263.5257 15.08840626135265,6917.878,95.438,540.696,538.791,0.0
51984.0,STARLINK-3664,PAYLOAD,2024-08-11 08:30:18,15.08856645,0.0001395,53.2177,101.9914,101.3699,258.7449,0.00012279,1.668e-05,0.0,0 STARLINK-3664,1 51984U 22025AE  24224.35437720  .00001668  00000-0  12279-3 0  9998,2 51984  53.2177 101.9914 0001395 101.3699 258.7449 15.08856645135305,6917.83,95.437,540.66,538.729,0.0
51984.0,STARLINK-3664,PAYLOAD,2024-08-11 22:48:47,15.08838625,0.0003042,53.2176,99.3152,93.5317,266.6023,0.00025068,3.703e-05,0.0,0 STARLINK-3664,1 51984U 22025AE  24224.95055118  .00003703  00000-0  25068-3 0  9993,2 51984  53.2176  99.3152 0003042  93.5317 266.6023 15.08838625134299,6917.885,95.438,541.854,537.645,0.0
51984.0,STARLINK-3664,PAYLOAD,2024-08-12 01:59:34,15.08831052,0.0001569,53.2172,98.7156,75.363,284.7536,6.1087e-06,-1.91e-06,0.0,0 STARLINK-3664,1 51984U 22025AE  24225.08304028 -.00000191  00000-0  61087-5 0  9997,2 51984  53.2172  98.7156 0001569  75.3630 284.7536 15.08831052135412,6917.908,95.438,540.858,538.687,0.0
51984.0,STARLINK-3664,PAYLOAD,2024-08-12 08:21:03,15.08875894,0.000102,53.2173,97.5304,70.1854,289.9248,0.00026573,3.948e-05,0.0,0 STARLINK-3664,1 51984U 22025AE  24225.34795948  .00003948  00000-0  26573-3 0  9992,2 51984  53.2173  97.5304 0001020  70.1854 289.9248 15.08875894135451,6917.771,95.435,540.341,538.93,0.0
51984.0,STARLINK-3664,PAYLOAD,2024-08-12 22:39:30,15.08884,0.0001411,53.2174,94.8491,94.1401,265.9753,0.00042497,6.49e-05,0.0,0 STARLINK-3664,1 51984U 22025AE  24225.94410879  .00006490  00000-0  42497-3 0  9993,2 51984  53.2174  94.8491 0001411  94.1401 265.9753 15.08884000134449,6917.746,95.435,540.587,538.635,0.0
51984.0,STARLINK-3664,PAYLOAD,2024-08-13 08:11:54,15.08795468,0.0001942,53.2166,93.0666,76.6928,283.428,-0.00072214,-0.00011749,0.0,0 STARLINK-3664,1 51984U 22025AE  24226.34160838 -.00011749  00000-0 -72214-3 0  9990,2 51984  53.2166  93.0666 0001942  76.6928 283.4280 15.08795468135601,6918.017,95.44,541.225,538.538,0.0
51984.0,STARLINK-3664,PAYLOAD,2024-08-13 22:30:27,15.08791696,0.0001251,53.2161,90.3947,85.4337,274.6798,-0.00066997,-0.0001092,0.0,0 STARLINK-3664,1 51984U 22025AE  24226.93781724 -.00010920  00000-0 -66997-3 0  9999,2 51984  53.2161  90.3947 0001251  85.4337 274.6798 15.08791696134595,6918.028,95.441,540.758,539.028,0.0
51984.0,STARLINK-3664,PAYLOAD,2024-08-14 00:05:46,15.08847754,0.000113,53.2161,90.097,144.5188,215.5879,-0.00018423,-3.219e-05,0.0,0 STARLINK-3664,1 51984U 22025AE  24227.00400878 -.00003219  00000-0 -18423-3 0  9990,2 51984  53.2161  90.0970 0001130 144.5188 215.5879 15.08847754135700,6917.857,95.437,540.503,538.94,0.0
51984.0,STARLINK-3664,PAYLOAD,2024-08-14 08:02:41,15.08858295,8.58e-05,53.2161,88.6101,90.9953,269.1137,-6.246e-05,-1.282e-05,0.0,0 STARLINK-3664,1 51984U 22025AE  24227.33519951 -.00001282  00000-0 -62460-4 0  9998,2 51984  53.2161  88.6101 0000858  90.9953 269.1137 15.08858295135758,6917.824,95.436,540.283,539.096,0.0
51984.0,STARLINK-3664,PAYLOAD,2024-08-14 20:45:46,15.08849426,8.32e-05,53.2172,86.2267,94.1901,265.9187,0.00042363,6.462e-05,0.0,0 STARLINK-3664,1 51984U 22025AE  24227.86512448  .00006462  00000-0  42363-3 0  9992,2 51984  53.2172  86.2267 0000832  94.1901 265.9187 15.08849426135832,6917.852,95.437,540.292,539.141,0.0
51984.0,STARLINK-3664,PAYLOAD,2024-08-14 22:21:08,15.08879365,0.0001371,53.2171,85.9308,70.1297,289.9843,2.6443e-05,1.33e-06,0.0,0 STARLINK-3664,1 51984U 22025AE  24227.93134387  .00000133  00000-0  26443-4 0  9993,2 51984  53.2171  85.9308 0001371  70.1297 289.9843 15.08879365134743,6917.76,95.435,540.573,538.677,0.0
51984.0,STARLINK-3664,PAYLOAD,2024-08-15 07:53:27,15.08868707,0.0001084,53.2165,84.1476,88.9134,271.1982,0.00042527,6.492e-05,0.0,0 STARLINK-3664,1 51984U 22025AE  24228.32879315  .00006492  00000-0  42527-3 0  9998,2 51984  53.2165  84.1476 0001084  88.9134 271.1982 15.08868707134803,6917.793,95.436,540.408,538.908,0.0
51984.0,STARLINK-3664,PAYLOAD,2024-08-15 20:36:34,15.08822824,8.33e-05,53.2169,81.7675,104.1875,255.921,0.00042218,6.434e-05,0.0,0 STARLINK-3664,1 51984U 22025AE  24228.85873840  .00006434  00000-0  42218-3 0  9996,2 51984  53.2169  81.7675 0000833 104.1875 255.9210 15.08822824135989,6917.933,95.439,540.374,539.222,0.0
51984.0,STARLINK-3664,PAYLOAD,2024-08-17 13:56:35,15.0884326,0.0001061,53.2166,74.0386,87.8385,272.2728,4.0714e-05,3.6e-06,0.0,0 STARLINK-3664,1 51984U 22025AE  24230.58096114  .00000360  00000-0  40714-4 0  9992,2 51984  53.2166  74.0386 0001061  87.8385 272.2728 15.08843260135148,6917.87,95.437,540.469,539.001,0.0
51984.0,STARLINK-3664,PAYLOAD,2024-08-17 23:28:53,15.08845793,0.000111,53.2163,72.2543,90.1635,269.9484,2.2723e-05,7.4e-07,0.0,0 STARLINK-3664,1 51984U 22025AE  24230.97840098  .00000074  00000-0  22723-4 0  9995,2 51984  53.2163  72.2543 0001110  90.1635 269.9484 15.08845793135202,6917.863,95.437,540.496,538.96,0.0
51984.0,STARLINK-3664,PAYLOAD,2024-08-18 20:08:54,15.08846505,7.47e-05,53.2179,68.3863,88.0281,272.0796,0.00010781,1.429e-05,0.0,0 STARLINK-3664,1 51984U 22025AE  24231.83951819  .00001429  00000-0  10781-3 0  9990,2 51984  53.2179  68.3863 0000747  88.0281 272.0796 15.08846505136437,6917.861,95.437,540.242,539.209,0.0
51984.0,STARLINK-3664,PAYLOAD,2024-08-19 12:02:45,15.0884662,0.0001835,53.218,65.4132,82.2456,277.8745,8.8917e-05,1.128e-05,0.0,0 STARLINK-3664,1 51984U 22025AE  24232.50191888  .00001128  00000-0  88917-4 0  9990,2 51984  53.2180  65.4132 0001835  82.2456 277.8745 15.08846620135439,6917.86,95.437,540.995,538.456,0.0
51984.0,STARLINK-3664,PAYLOAD,2024-08-20 05:32:01,15.08831144,0.0001222,53.2181,62.1413,85.4795,274.6337,-3.5087e-05,-8.46e-06,0.0,0 STARLINK-3664,1 51984U 22025AE  24233.23057344 -.00000846  00000-0 -35087-4 0  9997,2 51984  53.2181  62.1413 0001222  85.4795 274.6337 15.08831144136648,6917.907,95.438,540.618,538.927,0.0
51984.0,STARLINK-3664,PAYLOAD,2024-08-20 19:50:28,15.08845312,9.63e-05,53.2168,59.4657,83.8215,276.2887,0.00012621,1.722e-05,0.0,0 STARLINK-3664,1 51984U 22025AE  24233.82672047  .00001722  00000-0  12621-3 0  9995,2 51984  53.2168  59.4657 0000963  83.8215 276.2887 15.08845312136732,6917.864,95.437,540.395,539.063,0.0
51984.0,STARLINK-3664,PAYLOAD,2024-08-21 11:44:20,15.08838089,0.0001063,53.2167,56.4921,93.0322,267.0792,0.00023708,3.487e-05,0.0,0 STARLINK-3664,1 51984U 22025AE  24234.48912632  .00003487  00000-0  23708-3 0  9993,2 51984  53.2167  56.4921 0001063  93.0322 267.0792 15.08838089136833,6917.886,95.438,540.487,539.016,0.0
51984.0,STARLINK-3664,PAYLOAD,2024-08-21 19:41:16,15.08836523,0.0001021,53.2171,55.0037,88.8681,271.2428,0.00013078,1.794e-05,0.0,0 STARLINK-3664,1 51984U 22025AE  24234.82032801  .00001794  00000-0  13078-3 0  9990,2 51984  53.2171  55.0037 0001021  88.8681 271.2428 15.08836523135782,6917.891,95.438,540.462,539.05,0.0
